OBJECT_NAME,OBJECT_ID,EPOCH,MEAN_MOTION,ECCENTRICITY,INCLINATION,RA_OF_ASC_NODE,ARG_OF_PERICENTER,MEAN_ANOMALY,EPHEMERIS_TYPE,CLASSIFICATION_TYPE,NORAD_CAT_ID,ELEMENT_SET_NO,REV_AT_EPOCH,BSTAR,MEAN_MOTION_DOT,MEAN_MOTION_DDOT
LEMUR-1,2014-033AL,2026-06-26T22:15:57.770208,14.85280590,.0049225,97.7885,327.5167,47.4650,313.0706,0,U,40044,999,64691,.22318E-3,.1903E-4,0
LEMUR-2-GREENBERG,2017-042N,2026-06-27T05:09:00.210528,15.31627835,.00075946,97.3817,358.7950,335.8493,24.2392,0,U,42837,999,48992,.57177202E-3,.1742E-3,0
LEMUR-2-ANDIS,2017-042P,2026-06-27T00:36:10.818144,15.35228905,.00073988,97.3675,358.8246,334.0526,26.0345,0,U,42838,999,48996,.65752566E-3,.22466E-3,0
LEMUR-2-MONSON,2017-042Q,2026-06-27T05:53:03.713568,15.28291198,.00054251,97.4078,358.7823,326.1425,33.9467,0,U,42839,999,48970,.63484381E-3,.1745E-3,0
LEMUR-2-FURIAUS,2017-042R,2026-06-27T00:27:42.103584,15.30565551,.00074952,97.3765,356.5335,37.4370,322.7392,0,U,42840,999,48971,.63468247E-3,.1872E-3,0
LEMUR-2-PETERG,2017-042S,2026-06-27T00:22:10.216992,15.34291191,.00027025,97.3987,3.0637,309.6347,50.4657,0,U,42841,999,48994,.77888623E-3,.25838E-3,0
LEMUR-2-DEMBITZ,2017-042T,2026-06-27T00:56:01.622688,15.30580683,.00058523,97.3821,359.5844,353.2683,6.8478,0,U,42842,999,48985,.5730228E-3,.16892E-3,0
LEMUR-2-ZACHARY,2017-042W,2026-06-27T06:09:51.846912,15.51129271,.00022878,97.3587,10.1129,343.4449,16.6728,0,U,42845,999,49076,.88194645E-3,.51604E-3,0
LEMUR-2-AMANDA-SVANTE,2021-034B,2026-06-27T04:53:22.847424,15.34886264,.00033323,97.5761,256.7558,181.8054,178.3177,0,U,48269,999,28259,.10748783E-2,.36418E-3,0
LEMUR-2-SPECIAL-K,2021-034F,2026-06-27T04:22:58.965024,15.67512069,.00050779,97.5654,265.7839,222.4824,137.6044,0,U,48273,999,28325,.17556019E-2,.194451E-2,0
LEMUR-2-EMBRIONOVIS,2023-084AQ,2026-06-26T23:06:53.208576,15.37786701,.00074382,97.6292,322.5393,279.6247,80.4156,0,U,56970,999,16918,.38835237E-3,.14353E-3,0
LEMUR-2-DEVERILL-M-T,2023-100F,2026-06-27T01:06:32.239872,15.40226112,.00054004,99.4473,219.6539,14.6065,345.5330,0,U,57391,999,16276,.69724079E-3,.27997E-3,0
LEMUR-2-BASS,2023-174D,2026-06-27T04:41:53.919744,15.43421800,.00080801,97.3854,263.0492,131.9313,228.2625,0,U,58259,999,14690,.44023675E-3,.19636E-3,0
LEMUR-2-JK0903EM1407,2023-174CJ,2026-06-27T04:51:34.646112,15.52184890,.00050677,97.3932,268.9571,90.3801,269.8033,0,U,58336,999,14728,.49389646E-3,.29893E-3,0
LEMUR-2-MJR092620,2023-174CN,2026-06-27T04:44:17.570112,15.45234948,.00068187,97.3983,268.4126,87.9354,272.2675,0,U,58340,999,14719,.44389433E-3,.21051E-3,0
LEMUR-2-NIMBUS2000,2024-022A,2026-06-27T03:34:48.650880,15.40389850,.00102509,97.4103,28.2774,86.0612,274.1805,0,U,58899,999,13380,.58464859E-3,.23626E-3,0
LEMUR-2-VALHALLA,2024-022B,2026-06-27T03:32:46.021632,15.39966041,.00107454,97.4102,28.2609,81.9469,278.2996,0,U,58900,999,13380,.43178634E-3,.17174E-3,0
LEMUR-2-CAEL,2024-022E,2026-06-27T02:01:13.057824,15.41286446,.00089162,97.4082,29.1500,68.4162,291.8034,0,U,58903,999,13386,.43922991E-3,.18242E-3,0
LEMUR-2-JOHNNYTRUONG,2024-043BA,2026-06-26T23:01:14.906784,15.61185783,.00048384,97.5373,330.2724,147.1215,213.0344,0,U,59146,999,12956,.51173599E-3,.43312E-3,0
LEMUR-2-TOMATOKECHUP,2024-149D,2026-06-27T04:54:04.017024,15.36233630,.00023008,97.3805,260.2770,156.5261,203.6088,0,U,60471,999,10370,.31842884E-3,.11169E-3,0
LEMUR-2-STELLA,2024-149BT,2026-06-27T04:59:19.332960,15.12013491,.0001399,97.6743,260.7072,98.6856,261.4532,0,U,60533,999,10201,.66323222E-3,.11335E-3,0
LEMUR-2-MARHISYAM,2024-149BW,2026-06-27T04:36:16.482816,15.11447359,.0003184,97.6883,261.1503,100.0512,260.1077,0,U,60536,999,10199,.67099748E-3,.1129E-3,0
LEMUR-2-AHMED-ASRAR,2024-149DN,2026-06-27T05:11:29.558112,15.12930741,.00008894,97.7011,263.3065,16.1028,344.0231,0,U,60576,999,10208,.69328549E-3,.12159E-3,0
LEMUR-2-LLOYD,2024-149DP,2026-06-27T04:27:21.160512,15.09422988,.00050151,97.6747,259.3202,115.7212,244.4535,0,U,60577,999,10190,.71307536E-3,.11352E-3,0
LEMUR-2-SQUIRRELCOMM,2024-149DQ,2026-06-27T03:32:24.581472,15.07262377,.00058361,97.6718,259.0276,34.8164,325.3445,0,U,60578,999,10190,.42499518E-3,.6349E-4,0
LEMUR-2-SIERRINI,2024-149DR,2026-06-27T05:13:05.786976,15.11153287,.00065253,97.6848,260.8543,136.4393,223.7353,0,U,60579,999,10197,.71723842E-3,.1198E-3,0
LEMUR-2-WILSON,2025-009CP,2026-06-27T04:48:30.078432,14.95206048,.00034727,97.7026,256.4893,28.7668,331.3744,0,U,62694,999,7885,.19449341E-3,.2081E-4,0
LEMUR-2-STAR-FOX,2025-009CR,2026-06-27T05:09:49.195872,15.02622968,.00043597,97.6957,259.7519,91.4490,268.7234,0,U,62696,999,7906,.44910092E-3,.5925E-4,0
LEMUR-2-ARIANNA,2025-009CU,2026-06-27T05:07:35.395968,15.02621027,.00047229,97.6897,259.5169,95.6976,264.4788,0,U,62699,999,7906,.59489658E-3,.787E-4,0
